SITRO-AIS-62            
1 67296U 25313BA  26027.13851798  .00009772  00000+0  42988-3 0  9991
2 67296  97.4096 104.1597 0010264 128.5333 231.6825 15.22027290  4508
SITRO-AIS-61            
1 67297U 25313BB  26027.33460348  .00017378  00000+0  75984-3 0  9994
2 67297  97.4101 104.3558 0009997 129.7962 230.4156 15.22096353  4530
TIANHUI 7               
1 67300U 25314A   26020.93104818  .00004960  00000+0  19817-3 0  9992
2 67300  97.4187  97.9671 0001561 100.1824 259.9591 15.25587940  3337
CZ-4B R/B               
1 67301U 25314B   26027.46901800  .00149437  88729-5  65429-3 0  9993
2 67301  97.3706 106.1727 0130287 271.6887  86.9458 15.72808486  4402
SHIJIAN-29A (SJ-29A)    
1 67302U 25315A   26027.51243046 -.00000060  00000+0  00000+0 0  9991
2 67302   3.0407  98.8307 0001377 293.1831 352.2563  1.00270844   208
CZ-7A R/B               
1 67303U 25315B   26026.85062781  .00056055  33336-6  18592-2 0  9990
2 67303  19.6069  89.1329 7175604 199.8613 103.4259  2.45702477   665
CSG-3                   
1 67304U 26001A   26027.50801234  .00000790  00000+0  10489-3 0  9999
2 67304  97.8454 213.1619 0001608  82.7877 277.3519 14.82512255  3626
STARLINK-36490          
1 67305U 26002A   26027.50002314 -.02108617  00000+0 -30714-1 0  9995
2 67305  42.9990 200.0235 0001654 270.4011 134.5148 15.58050295  4852
STARLINK-36488          
1 67306U 26002B   26027.50002314 -.02105305  00000+0 -30665-1 0  9992
2 67306  42.9989 200.0192 0001586 268.9376 137.8996 15.58046475  4798
STARLINK-36481          
1 67307U 26002C   26027.50002314 -.02076274  00000+0 -30221-1 0  9993
2 67307  42.9988 200.0094 0001540 281.3710 129.3177 15.58021258  4799
STARLINK-36449          
1 67308U 26002D   26027.50002314 -.02114626  00000+0 -30809-1 0  9990
2 67308  42.9989 200.0044 0001608 271.3638 141.2216 15.58053409  4856
STARLINK-36482          
1 67309U 26002E   26027.50002314 -.02104267  00000+0 -30648-1 0  9992
2 67309  42.9990 199.9816 0001523 275.1633 147.0079 15.58046944  4795
