CCSDS_OMM_VERS = 2.0
CREATION_DATE  = 
ORIGINATOR     = 

OBJECT_NAME    = SITRO-AIS-62
OBJECT_ID      = 2025-313BA
CENTER_NAME    = EARTH
REF_FRAME      = TEME
TIME_SYSTEM    = UTC
MEAN_ELEMENT_THEORY = SGP/SGP4

EPOCH          = 2026-01-27T03:19:27.953472
MEAN_MOTION    = 15.22027290
ECCENTRICITY   = .0010264
INCLINATION    = 97.4096
RA_OF_ASC_NODE = 104.1597
ARG_OF_PERICENTER = 128.5333
MEAN_ANOMALY   = 231.6825

EPHEMERIS_TYPE = 0
CLASSIFICATION_TYPE = U
NORAD_CAT_ID   = 67296
ELEMENT_SET_NO = 999
REV_AT_EPOCH   = 450
BSTAR          = .42988124E-3
MEAN_MOTION_DOT = .9772E-4
MEAN_MOTION_DDOT = 0

CCSDS_OMM_VERS = 2.0
CREATION_DATE  = 
ORIGINATOR     = 

OBJECT_NAME    = SITRO-AIS-61
OBJECT_ID      = 2025-313BB
CENTER_NAME    = EARTH
REF_FRAME      = TEME
TIME_SYSTEM    = UTC
MEAN_ELEMENT_THEORY = SGP/SGP4

EPOCH          = 2026-01-27T08:01:49.740672
MEAN_MOTION    = 15.22096353
ECCENTRICITY   = .0009997
INCLINATION    = 97.4101
RA_OF_ASC_NODE = 104.3558
ARG_OF_PERICENTER = 129.7962
MEAN_ANOMALY   = 230.4156

EPHEMERIS_TYPE = 0
CLASSIFICATION_TYPE = U
NORAD_CAT_ID   = 67297
ELEMENT_SET_NO = 999
REV_AT_EPOCH   = 453
BSTAR          = .75984E-3
MEAN_MOTION_DOT = .17378E-3
MEAN_MOTION_DDOT = 0

CCSDS_OMM_VERS = 2.0
CREATION_DATE  = 
ORIGINATOR     = 

OBJECT_NAME    = TIANHUI 7
OBJECT_ID      = 2025-314A
CENTER_NAME    = EARTH
REF_FRAME      = TEME
TIME_SYSTEM    = UTC
MEAN_ELEMENT_THEORY = SGP/SGP4

EPOCH          = 2026-01-20T22:20:42.562752
MEAN_MOTION    = 15.25587940
ECCENTRICITY   = .00015619
INCLINATION    = 97.4187
RA_OF_ASC_NODE = 97.9671
ARG_OF_PERICENTER = 100.1824
MEAN_ANOMALY   = 259.9591

EPHEMERIS_TYPE = 0
CLASSIFICATION_TYPE = U
NORAD_CAT_ID   = 67300
ELEMENT_SET_NO = 999
REV_AT_EPOCH   = 333
BSTAR          = .19816833E-3
MEAN_MOTION_DOT = .496E-4
MEAN_MOTION_DDOT = 0

CCSDS_OMM_VERS = 2.0
CREATION_DATE  = 
ORIGINATOR     = 

OBJECT_NAME    = CZ-4B R/B
OBJECT_ID      = 2025-314B
CENTER_NAME    = EARTH
REF_FRAME      = TEME
TIME_SYSTEM    = UTC
MEAN_ELEMENT_THEORY = SGP/SGP4

EPOCH          = 2026-01-27T11:15:23.155200
MEAN_MOTION    = 15.72808486
ECCENTRICITY   = .0130287
INCLINATION    = 97.3706
RA_OF_ASC_NODE = 106.1727
ARG_OF_PERICENTER = 271.6887
MEAN_ANOMALY   = 86.9458

EPHEMERIS_TYPE = 0
CLASSIFICATION_TYPE = U
NORAD_CAT_ID   = 67301
ELEMENT_SET_NO = 999
REV_AT_EPOCH   = 440
BSTAR          = .65429E-3
MEAN_MOTION_DOT = .149437E-2
MEAN_MOTION_DDOT = .88729E-5

CCSDS_OMM_VERS = 2.0
CREATION_DATE  = 
ORIGINATOR     = 

OBJECT_NAME    = SHIJIAN-29A (SJ-29A)
OBJECT_ID      = 2025-315A
CENTER_NAME    = EARTH
REF_FRAME      = TEME
TIME_SYSTEM    = UTC
MEAN_ELEMENT_THEORY = SGP/SGP4

EPOCH          = 2026-01-27T12:17:53.991744
MEAN_MOTION    = 1.00270844
ECCENTRICITY   = .0001377
INCLINATION    = 3.0407
RA_OF_ASC_NODE = 98.8307
ARG_OF_PERICENTER = 293.1831
MEAN_ANOMALY   = 352.2563

EPHEMERIS_TYPE = 0
CLASSIFICATION_TYPE = U
NORAD_CAT_ID   = 67302
ELEMENT_SET_NO = 999
REV_AT_EPOCH   = 20
BSTAR          = 0
MEAN_MOTION_DOT = -.6E-6
MEAN_MOTION_DDOT = 0

CCSDS_OMM_VERS = 2.0
CREATION_DATE  = 
ORIGINATOR     = 

OBJECT_NAME    = CZ-7A R/B
OBJECT_ID      = 2025-315B
CENTER_NAME    = EARTH
REF_FRAME      = TEME
TIME_SYSTEM    = UTC
MEAN_ELEMENT_THEORY = SGP/SGP4

EPOCH          = 2026-01-26T20:24:54.242784
MEAN_MOTION    = 2.45702477
ECCENTRICITY   = .7175604
INCLINATION    = 19.6069
RA_OF_ASC_NODE = 89.1329
ARG_OF_PERICENTER = 199.8613
MEAN_ANOMALY   = 103.4259

EPHEMERIS_TYPE = 0
CLASSIFICATION_TYPE = U
NORAD_CAT_ID   = 67303
ELEMENT_SET_NO = 999
REV_AT_EPOCH   = 66
BSTAR          = .18591838E-2
MEAN_MOTION_DOT = .56055E-3
MEAN_MOTION_DDOT = .333363E-6

CCSDS_OMM_VERS = 2.0
CREATION_DATE  = 
ORIGINATOR     = 

OBJECT_NAME    = CSG-3
OBJECT_ID      = 2026-001A
CENTER_NAME    = EARTH
REF_FRAME      = TEME
TIME_SYSTEM    = UTC
MEAN_ELEMENT_THEORY = SGP/SGP4

EPOCH          = 2026-01-27T12:11:32.266176
MEAN_MOTION    = 14.82512255
ECCENTRICITY   = .0001608
INCLINATION    = 97.8454
RA_OF_ASC_NODE = 213.1619
ARG_OF_PERICENTER = 82.7877
MEAN_ANOMALY   = 277.3519

EPHEMERIS_TYPE = 0
CLASSIFICATION_TYPE = U
NORAD_CAT_ID   = 67304
ELEMENT_SET_NO = 999
REV_AT_EPOCH   = 362
BSTAR          = .10489E-3
MEAN_MOTION_DOT = .79E-5
MEAN_MOTION_DDOT = 0

CCSDS_OMM_VERS = 2.0
CREATION_DATE  = 
ORIGINATOR     = 

OBJECT_NAME    = STARLINK-36490
OBJECT_ID      = 2026-002A
CENTER_NAME    = EARTH
REF_FRAME      = TEME
TIME_SYSTEM    = UTC
MEAN_ELEMENT_THEORY = SGP/SGP4

EPOCH          = 2026-01-27T12:00:01.999296
MEAN_MOTION    = 15.58050295
ECCENTRICITY   = .0001654
INCLINATION    = 42.9990
RA_OF_ASC_NODE = 200.0235
ARG_OF_PERICENTER = 270.4011
MEAN_ANOMALY   = 134.5148

EPHEMERIS_TYPE = 0
CLASSIFICATION_TYPE = U
NORAD_CAT_ID   = 67305
ELEMENT_SET_NO = 999
REV_AT_EPOCH   = 485
BSTAR          = -.30714E-1
MEAN_MOTION_DOT = -.2108617E-1
MEAN_MOTION_DDOT = 0

CCSDS_OMM_VERS = 2.0
CREATION_DATE  = 
ORIGINATOR     = 

OBJECT_NAME    = STARLINK-36488
OBJECT_ID      = 2026-002B
CENTER_NAME    = EARTH
REF_FRAME      = TEME
TIME_SYSTEM    = UTC
MEAN_ELEMENT_THEORY = SGP/SGP4

EPOCH          = 2026-01-27T12:00:01.999296
MEAN_MOTION    = 15.58046475
ECCENTRICITY   = .0001586
INCLINATION    = 42.9989
RA_OF_ASC_NODE = 200.0192
ARG_OF_PERICENTER = 268.9376
MEAN_ANOMALY   = 137.8996

EPHEMERIS_TYPE = 0
CLASSIFICATION_TYPE = U
NORAD_CAT_ID   = 67306
ELEMENT_SET_NO = 999
REV_AT_EPOCH   = 479
BSTAR          = -.30665E-1
MEAN_MOTION_DOT = -.2105305E-1
MEAN_MOTION_DDOT = 0

CCSDS_OMM_VERS = 2.0
CREATION_DATE  = 
ORIGINATOR     = 

OBJECT_NAME    = STARLINK-36481
OBJECT_ID      = 2026-002C
CENTER_NAME    = EARTH
REF_FRAME      = TEME
TIME_SYSTEM    = UTC
MEAN_ELEMENT_THEORY = SGP/SGP4

EPOCH          = 2026-01-27T12:00:01.999296
MEAN_MOTION    = 15.58021258
ECCENTRICITY   = .000154
INCLINATION    = 42.9988
RA_OF_ASC_NODE = 200.0094
ARG_OF_PERICENTER = 281.3710
MEAN_ANOMALY   = 129.3177

EPHEMERIS_TYPE = 0
CLASSIFICATION_TYPE = U
NORAD_CAT_ID   = 67307
ELEMENT_SET_NO = 999
REV_AT_EPOCH   = 479
BSTAR          = -.30221E-1
MEAN_MOTION_DOT = -.2076274E-1
MEAN_MOTION_DDOT = 0

CCSDS_OMM_VERS = 2.0
CREATION_DATE  = 
ORIGINATOR     = 

OBJECT_NAME    = STARLINK-36449
OBJECT_ID      = 2026-002D
CENTER_NAME    = EARTH
REF_FRAME      = TEME
TIME_SYSTEM    = UTC
MEAN_ELEMENT_THEORY = SGP/SGP4

EPOCH          = 2026-01-27T12:00:01.999296
MEAN_MOTION    = 15.58053409
ECCENTRICITY   = .0001608
INCLINATION    = 42.9989
RA_OF_ASC_NODE = 200.0044
ARG_OF_PERICENTER = 271.3638
MEAN_ANOMALY   = 141.2216

EPHEMERIS_TYPE = 0
CLASSIFICATION_TYPE = U
NORAD_CAT_ID   = 67308
ELEMENT_SET_NO = 999
REV_AT_EPOCH   = 485
BSTAR          = -.30809E-1
MEAN_MOTION_DOT = -.2114626E-1
MEAN_MOTION_DDOT = 0

CCSDS_OMM_VERS = 2.0
CREATION_DATE  = 
ORIGINATOR     = 

OBJECT_NAME    = STARLINK-36482
OBJECT_ID      = 2026-002E
CENTER_NAME    = EARTH
REF_FRAME      = TEME
TIME_SYSTEM    = UTC
MEAN_ELEMENT_THEORY = SGP/SGP4

EPOCH          = 2026-01-27T12:00:01.999296
MEAN_MOTION    = 15.58046944
ECCENTRICITY   = .0001523
INCLINATION    = 42.9990
RA_OF_ASC_NODE = 199.9816
ARG_OF_PERICENTER = 275.1633
MEAN_ANOMALY   = 147.0079

EPHEMERIS_TYPE = 0
CLASSIFICATION_TYPE = U
NORAD_CAT_ID   = 67309
ELEMENT_SET_NO = 999
REV_AT_EPOCH   = 479
BSTAR          = -.30648E-1
MEAN_MOTION_DOT = -.2104267E-1
MEAN_MOTION_DDOT = 0

